HAWK-11C                
1 62381U 24247E   26068.51221537  .00009223  00000+0  33290-3 0  9992
2 62381  45.0045 114.8762 0005900 329.7040  30.3502 15.28848020 67743
STARLINK-33891          
1 63827U 25092Z   26068.32020249  .00036012  00000+0  13113-2 0  9990
2 63827  42.9989 175.0118 0002911 294.0448  66.0099 15.27590697 48492
